[{"OBJECT_NAME":"KUIPER-00118","OBJECT_ID":"2025-171Y","EPOCH":"2026-03-09T11:44:20.268672","MEAN_MOTION":14.80076244,"ECCENTRICITY":5.54e-5,"INCLINATION":51.8989,"RA_OF_ASC_NODE":176.4665,"ARG_OF_PERICENTER":68.0041,"MEAN_ANOMALY":292.098,"EPHEMERIS_TYPE":0,"CLASSIFICATION_TYPE":"U","NORAD_CAT_ID":65154,"ELEMENT_SET_NO":999,"REV_AT_EPOCH":3261,"BSTAR":0.00082993756,"MEAN_MOTION_DOT":6.133e-5,"MEAN_MOTION_DDOT":0},{"OBJECT_NAME":"THORAD AGENA D DEB","OBJECT_ID":"1970-025QQ","EPOCH":"2026-03-09T22:16:40.552032","MEAN_MOTION":14.72649323,"ECCENTRICITY":0.00362657,"INCLINATION":99.9876,"RA_OF_ASC_NODE":49.5884,"ARG_OF_PERICENTER":302.5845,"MEAN_ANOMALY":118.7127,"EPHEMERIS_TYPE":0,"CLASSIFICATION_TYPE":"U","NORAD_CAT_ID":26821,"ELEMENT_SET_NO":999,"REV_AT_EPOCH":69245,"BSTAR":0.0043433352,"MEAN_MOTION_DOT":0.00028003,"MEAN_MOTION_DDOT":0}]
